start=new Date('2022-01-10T00:00:00.000Z').valueOf();
sats=[{"REV_AT_EPOCH":"5137","BSTAR":"0.00031510000000","NORAD_CAT_ID":"47567","TIME_SYSTEM":"UTC","FILE":"3268062","ELEMENT_SET_NO":"999","OBJECT_NAME":"STARLINK-1966","RA_OF_ASC_NODE":"26.2432","MEAN_MOTION_DDOT":"0.0000000000000","EPHEMERIS_TYPE":"0","MEAN_MOTION":"15.06411125","PERIAPSIS":"546.143","TLE_LINE1":"1 47567U 21009V   22009.45081019  .00004416  00000-0  31510-3 0  9990","MEAN_ELEMENT_THEORY":"SGP4","SITE":"AFETR","INCLINATION":"53.0559","ECCENTRICITY":"0.00014960","GP_ID":"193527048","LAUNCH_DATE":"2021-02-04","TLE_LINE2":"2 47567  53.0559  26.2432 0001496  63.6206 296.4937 15.06411125 51372","COUNTRY_CODE":"US","SEMIMAJOR_AXIS":"6925.314","REF_FRAME":"TEME","CLASSIFICATION_TYPE":"U","EPOCH":"2022-01-09T10:49:10.000416","ARG_OF_PERICENTER":"63.6206","OBJECT_TYPE":"PAYLOAD","APOAPSIS":"548.215","MEAN_ANOMALY":"296.4937","DECAY_DATE":null,"MEAN_MOTION_DOT":"0.00004416","CENTER_NAME":"EARTH","RCS_SIZE":"LARGE","PERIOD":"95.591","OBJECT_ID":"2021-009V"},{"OBJECT_ID":"2021-009W","PERIOD":"95.592","RCS_SIZE":"LARGE","CENTER_NAME":"EARTH","DECAY_DATE":null,"MEAN_MOTION_DOT":"0.00002845","MEAN_ANOMALY":"290.4326","OBJECT_TYPE":"PAYLOAD","APOAPSIS":"548.168","ARG_OF_PERICENTER":"69.6815","EPOCH":"2022-01-09T17:48:28.186560","CLASSIFICATION_TYPE":"U","SEMIMAJOR_AXIS":"6925.326","REF_FRAME":"TEME","COUNTRY_CODE":"US","TLE_LINE2":"2 47568  53.0554  24.9313 0001411  69.6815 290.4326 15.06407364 51422","LAUNCH_DATE":"2021-02-04","GP_ID":"193558901","ECCENTRICITY":"0.00014110","MEAN_ELEMENT_THEORY":"SGP4","SITE":"AFETR","INCLINATION":"53.0554","TLE_LINE1":"1 47568U 21009W   22009.74199290  .00002845  00000-0  20974-3 0  9990","PERIAPSIS":"546.214","EPHEMERIS_TYPE":"0","MEAN_MOTION":"15.06407364","RA_OF_ASC_NODE":"24.9313","MEAN_MOTION_DDOT":"0.0000000000000","OBJECT_NAME":"STARLINK-1967","FILE":"3268323","ELEMENT_SET_NO":"999","TIME_SYSTEM":"UTC","BSTAR":"0.00020974000000","NORAD_CAT_ID":"47568","REV_AT_EPOCH":"5142"},{"SEMIMAJOR_AXIS":"6817.784","REF_FRAME":"TEME","CLASSIFICATION_TYPE":"U","TLE_LINE2":"2 47569  53.0542 344.2454 0002970  26.9258 333.1901 15.42190247 51997","COUNTRY_CODE":"US","MEAN_MOTION_DOT":"0.00002716","DECAY_DATE":null,"OBJECT_ID":"2021-009X","PERIOD":"93.374","RCS_SIZE":"LARGE","CENTER_NAME":"EARTH","ARG_OF_PERICENTER":"26.9258","EPOCH":"2022-01-09T15:29:44.709504","MEAN_ANOMALY":"333.1901","OBJECT_TYPE":"PAYLOAD","APOAPSIS":"441.673","FILE":"3268323","TIME_SYSTEM":"UTC","ELEMENT_SET_NO":"999","RA_OF_ASC_NODE":"344.2454","MEAN_MOTION_DDOT":"0.0000000000000","OBJECT_NAME":"STARLINK-1968","REV_AT_EPOCH":"5199","BSTAR":"0.00007179900000","NORAD_CAT_ID":"47569","ECCENTRICITY":"0.00029700","MEAN_ELEMENT_THEORY":"SGP4","SITE":"AFETR","INCLINATION":"53.0542","LAUNCH_DATE":"2021-02-04","GP_ID":"193558634","TLE_LINE1":"1 47569U 21009X   22009.64565636  .00002716  00000-0  71799-4 0  9990","PERIAPSIS":"437.624","EPHEMERIS_TYPE":"0","MEAN_MOTION":"15.42190247"},{"MEAN_MOTION_DDOT":"0.0000000000000","RA_OF_ASC_NODE":"346.7499","OBJECT_NAME":"STARLINK-1969","TIME_SYSTEM":"UTC","FILE":"3268062","ELEMENT_SET_NO":"999","NORAD_CAT_ID":"47570","BSTAR":"0.00014354000000","REV_AT_EPOCH":"5192","LAUNCH_DATE":"2021-02-04","GP_ID":"193527298","ECCENTRICITY":"0.00018180","SITE":"AFETR","INCLINATION":"53.0552","MEAN_ELEMENT_THEORY":"SGP4","TLE_LINE1":"1 47570U 21009Y   22009.33656759  .00001856  00000-0  14354-3 0  9992","PERIAPSIS":"545.988","MEAN_MOTION":"15.06388981","EPHEMERIS_TYPE":"0","CLASSIFICATION_TYPE":"U","REF_FRAME":"TEME","SEMIMAJOR_AXIS":"6925.382","COUNTRY_CODE":"US","TLE_LINE2":"2 47570  53.0552 346.7499 0001818  67.8553 292.2629 15.06388981 51927","OBJECT_ID":"2021-009Y","RCS_SIZE":"LARGE","CENTER_NAME":"EARTH","PERIOD":"95.593","MEAN_MOTION_DOT":"0.00001856","DECAY_DATE":null,"MEAN_ANOMALY":"292.2629","APOAPSIS":"548.506","OBJECT_TYPE":"PAYLOAD","ARG_OF_PERICENTER":"67.8553","EPOCH":"2022-01-09T08:04:39.439776"},{"CENTER_NAME":"EARTH","RCS_SIZE":"LARGE","PERIOD":"95.592","OBJECT_ID":"2021-009Z","DECAY_DATE":null,"MEAN_MOTION_DOT":"0.00004670","OBJECT_TYPE":"PAYLOAD","APOAPSIS":"548.480","MEAN_ANOMALY":"292.2781","EPOCH":"2022-01-09T16:16:55.623648","ARG_OF_PERICENTER":"67.8405","CLASSIFICATION_TYPE":"U","SEMIMAJOR_AXIS":"6925.326","REF_FRAME":"TEME","COUNTRY_CODE":"US","TLE_LINE2":"2 47571  53.0547 355.2228 0001861  67.8405 292.2781 15.06407374 51838","GP_ID":"193557650","LAUNCH_DATE":"2021-02-04","MEAN_ELEMENT_THEORY":"SGP4","SITE":"AFETR","INCLINATION":"53.0547","ECCENTRICITY":"0.00018610","EPHEMERIS_TYPE":"0","MEAN_MOTION":"15.06407374","TLE_LINE1":"1 47571U 21009Z   22009.67842157  .00004670  00000-0  33216-3 0  9994","PERIAPSIS":"545.902","OBJECT_NAME":"STARLINK-1970","MEAN_MOTION_DDOT":"0.0000000000000","RA_OF_ASC_NODE":"355.2228","ELEMENT_SET_NO":"999","FILE":"3268323","TIME_SYSTEM":"UTC","BSTAR":"0.00033216000000","NORAD_CAT_ID":"47571","REV_AT_EPOCH":"5183"},{"PERIAPSIS":"545.886","TLE_LINE1":"1 47572U 21009AA  22009.65999962  .00001917  00000-0  14757-3 0  9990","EPHEMERIS_TYPE":"0","MEAN_MOTION":"15.06406901","LAUNCH_DATE":"2021-02-04","GP_ID":"193558402","ECCENTRICITY":"0.00018870","MEAN_ELEMENT_THEORY":"SGP4","INCLINATION":"53.0584","SITE":"AFETR","BSTAR":"0.00014757000000","NORAD_CAT_ID":"47572","REV_AT_EPOCH":"5183","MEAN_MOTION_DDOT":"0.0000000000000","RA_OF_ASC_NODE":"355.2919","OBJECT_NAME":"STARLINK-1971","ELEMENT_SET_NO":"999","FILE":"3268323","TIME_SYSTEM":"UTC","MEAN_ANOMALY":"291.5502","OBJECT_TYPE":"PAYLOAD","APOAPSIS":"548.499","ARG_OF_PERICENTER":"68.5688","EPOCH":"2022-01-09T15:50:23.967168","OBJECT_ID":"2021-009AA","RCS_SIZE":"LARGE","CENTER_NAME":"EARTH","PERIOD":"95.592","DECAY_DATE":null,"MEAN_MOTION_DOT":"0.00001917","COUNTRY_CODE":"US","TLE_LINE2":"2 47572  53.0584 355.2919 0001887  68.5688 291.5502 15.06406901 51834","CLASSIFICATION_TYPE":"U","SEMIMAJOR_AXIS":"6925.327","REF_FRAME":"TEME"},{"MEAN_MOTION_DDOT":"0.0000000000000","RA_OF_ASC_NODE":"356.5810","OBJECT_NAME":"STARLINK-1975","ELEMENT_SET_NO":"999","FILE":"3268062","TIME_SYSTEM":"UTC","NORAD_CAT_ID":"47573","BSTAR":"0.00021847000000","REV_AT_EPOCH":"5178","LAUNCH_DATE":"2021-02-04","GP_ID":"193528550","ECCENTRICITY":"0.00017040","INCLINATION":"53.0570","SITE":"AFETR","MEAN_ELEMENT_THEORY":"SGP4","PERIAPSIS":"546.026","TLE_LINE1":"1 47573U 21009AB  22009.37248587  .00002974  00000-0  21847-3 0  9992","MEAN_MOTION":"15.06402400","EPHEMERIS_TYPE":"0","CLASSIFICATION_TYPE":"U","REF_FRAME":"TEME","SEMIMAJOR_AXIS":"6925.341","COUNTRY_CODE":"US","TLE_LINE2":"2 47573  53.0570 356.5810 0001704  64.3458 295.7707 15.06402400 51788","OBJECT_ID":"2021-009AB","RCS_SIZE":"LARGE","CENTER_NAME":"EARTH","PERIOD":"95.592","MEAN_MOTION_DOT":"0.00002974","DECAY_DATE":null,"MEAN_ANOMALY":"295.7707","APOAPSIS":"548.386","OBJECT_TYPE":"PAYLOAD","ARG_OF_PERICENTER":"64.3458","EPOCH":"2022-01-09T08:56:22.779168"},{"EPOCH":"2022-01-09T10:54:28.149408","ARG_OF_PERICENTER":"66.8399","OBJECT_TYPE":"PAYLOAD","APOAPSIS":"548.176","MEAN_ANOMALY":"293.2740","MEAN_MOTION_DOT":"0.00002925","DECAY_DATE":null,"RCS_SIZE":"LARGE","PERIOD":"95.592","CENTER_NAME":"EARTH","OBJECT_ID":"2021-009AC","TLE_LINE2":"2 47574  53.0567  26.2169 0001424  66.8399 293.2740 15.06407710 51377","COUNTRY_CODE":"US","SEMIMAJOR_AXIS":"6925.325","REF_FRAME":"TEME","CLASSIFICATION_TYPE":"U","EPHEMERIS_TYPE":"0","MEAN_MOTION":"15.06407710","TLE_LINE1":"1 47574U 21009AC  22009.45449247  .00002925  00000-0  21513-3 0  9994","PERIAPSIS":"546.204","MEAN_ELEMENT_THEORY":"SGP4","INCLINATION":"53.0567","SITE":"AFETR","ECCENTRICITY":"0.00014240","GP_ID":"193526799","LAUNCH_DATE":"2021-02-04","REV_AT_EPOCH":"5137","BSTAR":"0.00021513000000","NORAD_CAT_ID":"47574","ELEMENT_SET_NO":"999","FILE":"3268062","TIME_SYSTEM":"UTC","OBJECT_NAME":"STARLINK-1976","MEAN_MOTION_DDOT":"0.0000000000000","RA_OF_ASC_NODE":"26.2169"},{"BSTAR":"0.00016470000000","NORAD_CAT_ID":"47575","REV_AT_EPOCH":"5144","OBJECT_NAME":"STARLINK-1977","MEAN_MOTION_DDOT":"0.0000000000000","RA_OF_ASC_NODE":"24.1814","FILE":"3268323","TIME_SYSTEM":"UTC","ELEMENT_SET_NO":"999","EPHEMERIS_TYPE":"0","MEAN_MOTION":"15.06404763","TLE_LINE1":"1 47575U 21009AD  22009.90786558  .00002173  00000-0  16470-3 0  9995","PERIAPSIS":"546.268","GP_ID":"193558150","LAUNCH_DATE":"2021-02-04","MEAN_ELEMENT_THEORY":"SGP4","INCLINATION":"53.0563","SITE":"AFETR","ECCENTRICITY":"0.00013440","COUNTRY_CODE":"US","TLE_LINE2":"2 47575  53.0563  24.1814 0001344  72.0056 288.1080 15.06404763 51441","CLASSIFICATION_TYPE":"U","SEMIMAJOR_AXIS":"6925.334","REF_FRAME":"TEME","OBJECT_TYPE":"PAYLOAD","APOAPSIS":"548.130","MEAN_ANOMALY":"288.1080","EPOCH":"2022-01-09T21:47:19.586112","ARG_OF_PERICENTER":"72.0056","RCS_SIZE":"LARGE","PERIOD":"95.592","CENTER_NAME":"EARTH","OBJECT_ID":"2021-009AD","DECAY_DATE":null,"MEAN_MOTION_DOT":"0.00002173"},{"TLE_LINE1":"1 47576U 21009AE  22009.34391205  .00001946  00000-0  14947-3 0  9999","PERIAPSIS":"545.871","EPHEMERIS_TYPE":"0","MEAN_MOTION":"15.06403984","ECCENTRICITY":"0.00019210","MEAN_ELEMENT_THEORY":"SGP4","SITE":"AFETR","INCLINATION":"53.0543","LAUNCH_DATE":"2021-02-04","GP_ID":"193527801","REV_AT_EPOCH":"5192","BSTAR":"0.00014947000000","NORAD_CAT_ID":"47576","FILE":"3268062","TIME_SYSTEM":"UTC","ELEMENT_SET_NO":"999","RA_OF_ASC_NODE":"346.7129","MEAN_MOTION_DDOT":"0.0000000000000","OBJECT_NAME":"STARLINK-1978","ARG_OF_PERICENTER":"54.4247","EPOCH":"2022-01-09T08:15:14.001120","MEAN_ANOMALY":"305.6921","OBJECT_TYPE":"PAYLOAD","APOAPSIS":"548.532","DECAY_DATE":null,"MEAN_MOTION_DOT":"0.00001946","OBJECT_ID":"2021-009AE","PERIOD":"95.592","RCS_SIZE":"LARGE","CENTER_NAME":"EARTH","TLE_LINE2":"2 47576  53.0543 346.7129 0001921  54.4247 305.6921 15.06403984 51925","COUNTRY_CODE":"US","SEMIMAJOR_AXIS":"6925.336","REF_FRAME":"TEME","CLASSIFICATION_TYPE":"U"}];
